LANDSAT 5               
<<<<<<< .mine
1 14780U 84021A   13104.12389187  .00000321  00000-0  69735-4 0  9049
2 14780  98.1032 169.2655 0002567 117.4344 242.7120 14.64293888548876
=======
1 14780U 84021A   13110.19981826 -.00000703  00000-0 -11491-3 0  9198
2 14780  98.1015 175.2604 0016946 104.1038 256.0413 14.67597391549768
>>>>>>> .r6620
SPOT 2                  
<<<<<<< .mine
1 20436U 90005A   13104.42735811  .00000607  00000-0  11018-3 0  4418
2 20436  98.7179 260.7067 0150838 304.0037  54.6890 14.63467836209762
SCD 1                   
1 22490U 93009B   13103.11944049  .00000534  00000-0  10056-3 0  1098
2 22490  24.9702 337.9434 0043264  71.3800  63.6479 14.43845798 64754
=======
1 20436U 90005A   13110.10208869  .00000590  00000-0  10744-3 0  4627
2 20436  98.7221 266.7137 0150665 286.2209  72.2459 14.63474111210587
SCD 1                   
1 22490U 93009B   13108.02752132  .00000390  00000-0  59342-4 0  1129
2 22490  24.9700 307.7496 0043045 122.9976  15.2472 14.43847913 65465
>>>>>>> .r6620
ERS-2                   
<<<<<<< .mine
1 23560U 95021A   13104.43717622  .00004924  00000-0  34539-3 0  6357
2 23560  98.5397 251.4122 0004999  37.4359 322.7135 15.05719120944650
=======
1 23560U 95021A   13110.04440456  .00003269  00000-0  23082-3 0  6418
2 23560  98.5441 257.6197 0004352  26.9787 109.5186 15.05763321945505
>>>>>>> .r6620
RADARSAT-1              
<<<<<<< .mine
1 23710U 95059A   13104.19145580  .00000317  00000-0  13982-3 0  5457
2 23710  98.5809 112.3876 0001162  85.9375 341.9674 14.29987306910462
=======
1 23710U 95059A   13110.20860973  .00000150  00000-0  75017-4 0  5640
2 23710  98.5818 118.3228 0001155  90.5005 335.7783 14.29989466911320
>>>>>>> .r6620
TOMS EP                 
<<<<<<< .mine
1 23940U 96037A   13103.46792944  .00000612  00000-0  15732-3 0  2247
2 23940  97.9219 284.6202 0028404 347.5337  45.6732 14.53168822892120
=======
1 23940U 96037A   13107.07041646  .00000420  00000-0  11119-3 0  2279
2 23940  97.9217 288.0258 0028174 336.0588 172.0492 14.53171834892644
>>>>>>> .r6620
MIDORI (ADEOS)          
<<<<<<< .mine
1 24277U 96046A   13103.46005719  .00000187  00000-0  91230-4 0  1983
2 24277  98.5501  47.2098 0002279 110.1317  26.0474 14.28874330868292
=======
1 24277U 96046A   13109.47700380  .00000052  00000-0  37909-4 0  2037
2 24277  98.5508  53.1091 0002322 102.4649   6.9192 14.28875839869154
>>>>>>> .r6620
ORBVIEW 2 (SEASTAR)     
<<<<<<< .mine
1 24883U 97037A   13103.86973412  .00000263  00000-0  11242-3 0    62
2 24883  98.4438 220.2581 0001109 317.3781 188.9700 14.32613018833448
=======
1 24883U 97037A   13109.80874044  .00000139  00000-0  67093-4 0   117
2 24883  98.4449 226.0446 0001049 280.3327 238.3134 14.32615433834290
>>>>>>> .r6620
IRS-1D                  
<<<<<<< .mine
1 24971U 97057A   13104.10770034  .00000244  00000-0  10161-3 0  6126
2 24971  98.2258  88.0043 0055055  83.7297 277.0158 14.33294742812907
=======
1 24971U 97057A   13110.11131831  .00000202  00000-0  86720-4 0  6309
2 24971  98.2270  93.7133 0055015  66.1330 294.5605 14.33297521813767
>>>>>>> .r6620
TRMM                    
<<<<<<< .mine
1 25063U 97074A   13104.14384609  .00019200  00000-0  26911-3 0  2938
2 25063  34.9595  98.3329 0000832 247.5347 183.4778 15.55806558877820
=======
1 25063U 97074A   13110.18464586  .00016015  00000-0  22288-3 0  2981
2 25063  34.9598  58.3761 0001485 229.3379 255.6505 15.56022038878765
>>>>>>> .r6620
SPOT 4                  
<<<<<<< .mine
1 25260U 98017A   13104.14672426 -.00000630  00000-0 -27186-3 0  4365
2 25260  98.5186 161.4942 0001558 117.6686 242.4615 14.20886885780600
=======
1 25260U 98017A   13110.13231669 -.00000227  00000-0 -85302-4 0  4548
2 25260  98.5172 167.2663 0001616 110.9680 249.1728 14.20882612781451
>>>>>>> .r6620
FASAT B                 
<<<<<<< .mine
1 25395U 98043B   13103.49349215  .00000170  00000-0  90844-4 0  5974
2 25395  98.3596  81.6694 0003980  80.9237  65.6154 14.24640122767226
=======
1 25395U 98043B   13109.46322468  .00000067  00000-0  46455-4 0  6029
2 25395  98.3602  87.3545 0003761  67.8346  78.2141 14.24642000768071
>>>>>>> .r6620
TECHSAT 1B (GO-32)      
<<<<<<< .mine
1 25397U 98043D   13103.46277156  .00000090  00000-0  58080-4 0   452
2 25397  98.4085  74.0595 0002416 115.0203  31.2713 14.23332331766738
SCD 2                   
1 25504U 98060A   13104.16745697  .00000389  00000-0  60518-4 0  4206
2 25504  24.9948 165.5677 0017354 137.1270 251.2824 14.43456920764315
=======
1 25397U 98043D   13109.83733918  .00000022  00000-0  27863-4 0   508
2 25397  98.4093  80.1520 0002517 105.4641 285.4772 14.23333393767642
SCD 2                   
1 25504U 98060A   13110.11725372  .00000339  00000-0  45977-4 0  4247
2 25504  24.9953 128.9965 0016981 200.6477 208.2331 14.43458116765173
>>>>>>> .r6620
LANDSAT 7               
<<<<<<< .mine
1 25682U 99020A   13104.17702127  .00000327  00000-0  82660-4 0   415
2 25682  98.1966 174.5927 0000713  42.6649 317.4612 14.57120367744512
=======
1 25682U 99020A   13110.15122848  .00000136  00000-0  40171-4 0   594
2 25682  98.1949 180.4743 0000496  86.7211 273.4053 14.57123534745382
>>>>>>> .r6620
KITSAT 3                
<<<<<<< .mine
1 25756U 99029A   13103.27690353  .00000195  00000-0  58627-4 0   928
2 25756  98.5038 351.1742 0013153 234.3119 235.3775 14.52944161735845
=======
1 25756U 99029A   13109.27564769  .00000080  00000-0  30903-4 0   970
2 25756  98.5033 357.2562 0013475 214.9299 293.4645 14.52945724736711
>>>>>>> .r6620
DLR-TUBSAT              
<<<<<<< .mine
1 25757U 99029B   13104.11131793  .00000068  00000-0  29150-4 0    08
2 25757  98.5473 345.0771 0013565 280.0466  79.9208 14.51032000735272
=======
1 25757U 99029B   13110.11054341  .00000060  00000-0  27007-4 0   188
2 25757  98.5458 351.1708 0013578 261.1782  98.7881 14.51033299736142
>>>>>>> .r6620
IRS-P4 (OCEANSAT 1)     
<<<<<<< .mine
1 25758U 99029C   13104.18016510  .00000343  00000-0  97181-4 0  3272
2 25758  98.2433 195.8273 0001218 269.0590 122.2835 14.51335099735431
=======
1 25758U 99029C   13110.17814029  .00000259  00000-0  75888-4 0  3321
2 25758  98.2436 201.7089 0001570 237.1284 154.0805 14.51337610736312
>>>>>>> .r6620
QUIKSCAT                
<<<<<<< .mine
1 25789U 99034A   13103.14507765  .00000055  00000-0  40571-4 0  5738
2 25789  98.6214 293.9484 0001728 126.3112 343.1677 14.26991734719527
=======
1 25789U 99034A   13109.51480469  .00000055  00000-0  40631-4 0  5788
2 25789  98.6208 300.2262 0001897 119.9530 293.3012 14.26992580720436
>>>>>>> .r6620
IKONOS 2                
<<<<<<< .mine
1 25919U 99051A   13104.40317671 -.00002327  00000-0 -43110-3 0  8984
2 25919  98.1020 180.3498 0001506  87.8327 272.3051 14.64440466724550
=======
1 25919U 99051A   13110.07422011  .00000276  00000-0  61014-4 0  9185
2 25919  98.1020 185.9338 0001385  85.6408 274.4960 14.64451211725389
>>>>>>> .r6620
CBERS 1 (ZY 1A)         
<<<<<<< .mine
1 25940U 99057A   13103.00147602  .00000268  00000-0  10935-3 0  4507
2 25940  98.3112  61.7335 0004474 216.5531 189.3506 14.34781179706935
=======
1 25940U 99057A   13109.97200563  .00000096  00000-0  48660-4 0  4567
2 25940  98.3120  68.4427 0004942 194.2507 195.1358 14.34783365707935
>>>>>>> .r6620
TERRA                   
<<<<<<< .mine
1 25994U 99068A   13104.19221892  .00000433  00000-0  10607-3 0   194
2 25994  98.2100 180.0387 0001217 100.1286 260.0059 14.57114855708599
=======
1 25994U 99068A   13110.16644684  .00000228  00000-0  60545-4 0   397
2 25994  98.2095 185.9295 0001199 100.5939 259.5419 14.57118644709462
>>>>>>> .r6620
ARIRANG 1 (KOMPSAT-1)   
<<<<<<< .mine
1 26032U 99070A   13104.18117450  .00000870  00000-0  16420-3 0  9377
2 26032  97.7573 301.2780 0006174 110.0710 250.1147 14.66722019712167
=======
1 26032U 99070A   13110.18455809  .00000379  00000-0  76032-4 0  9568
2 26032  97.7580 306.9591 0006205  94.4841 265.7053 14.66728584713041
>>>>>>> .r6620
EO-1                    
<<<<<<< .mine
1 26619U 00075A   13104.17863770 -.00000139  00000-0 -18112-4 0  3709
2 26619  98.0351 168.1195 0008985 240.4623 119.5708 14.62909670660438
=======
1 26619U 00075A   13110.19763026  .00001135  00000-0  23074-3 0  3898
2 26619  98.0345 173.9832 0009296 219.6265 140.4311 14.62917051661312
>>>>>>> .r6620
SAC-C                   
<<<<<<< .mine
1 26620U 00075B   13103.01020156  .00000680  00000-0  16028-3 0  8815
2 26620  97.9277  82.5971 0001132  96.1834 294.9453 14.57163771658882
=======
1 26620U 00075B   13110.01419537  .00000377  00000-0  93008-4 0  8871
2 26620  97.9278  89.2656 0001124 103.7515 287.0180 14.57168897659907
>>>>>>> .r6620
EROS A1                 
<<<<<<< .mine
1 26631U 00079A   13104.15448073  .00009196  00000-0  55807-3 0  1787
2 26631  97.6170 178.5999 0010515 263.2118 179.7981 15.10704534685813
=======
1 26631U 00079A   13110.11634691  .00006299  00000-0  38277-3 0  1966
2 26631  97.6163 184.5341 0010901 237.9915 209.2797 15.10782017686711
>>>>>>> .r6620
QUICKBIRD 2             
<<<<<<< .mine
1 26953U 01047A   13104.16517487  .00015729  00000-0  37673-3 0  5163
2 26953  97.1783 169.2541 0001365 120.0279 273.7382 15.41511126645202
=======
1 26953U 01047A   13110.14603909  .00010659  00000-0  25494-3 0  5359
2 26953  97.1769 175.1370 0001539 121.5368 322.4435 15.41645340646129
>>>>>>> .r6620
TES                     
<<<<<<< .mine
1 26957U 01049A   13104.06980994  .00129496  00000-0  95476-2 0  4749
2 26957  97.7315 184.6153 0050752 165.5695 194.8460 15.01645802628748
=======
1 26957U 01049A   13110.19979611  .00002827  00000-0  21594-3 0  4956
2 26957  97.7317 190.7250 0050661 146.8048 213.6376 15.01773789629663
>>>>>>> .r6620
JASON 1                 
<<<<<<< .mine
1 26997U 01055A   13102.79257367 -.00000034  00000-0  11546-3 0  6442
2 26997  66.0421  47.8387 0008254 285.8293 105.0561 12.83921184530899
=======
1 26997U 01055A   13109.18898395 -.00000057  00000-0  20583-4 0  6474
2 26997  66.0429  34.4810 0008205 285.6670 147.2677 12.83921540531717
